HAWK-A                  
1 43765U 18099H   26068.67628545  .00008617  00000+0  36104-3 0  9995
2 43765  97.4051 122.2425 0034260 275.5523  84.1807 15.23231043397949
STARLINK-33903          
1 63828U 25092AA  26068.29064626  .00027937  00000+0  10206-2 0  9990
2 63828  43.0062 174.7963 0001760 272.7263  87.3387 15.27590184 48600
